{"type": "FeatureCollection", "features": [ {"type": "Feature", "properties": {"norad_id": 66870, "name": "STARLINK-36114", "group": "last-30-days", "lat": -15.444545880124574, "lon": -99.92058304960477, "alt_km": 370.84236787793, "timestamp": "2025-12-22T11:33:19.156000+00:00", "meta": {"OBJECT_NAME": "STARLINK-36114", "OBJECT_ID": "2025-281Y", "EPOCH": "2025-12-22T04:00:01.998720", "MEAN_MOTION": 15.67570085, "ECCENTRICITY": 0.0001219, "INCLINATION": 43.0005, "RA_OF_ASC_NODE": 64.7199, "ARG_OF_PERICENTER": 263.9989, "MEAN_ANOMALY": 321.1422, "EPHEMERIS_TYPE": 0, "CLASSIFICATION_TYPE": "U", "NORAD_CAT_ID": 66870, "ELEMENT_SET_NO": 999, "REV_AT_EPOCH": 280, "BSTAR": -0.019538, "MEAN_MOTION_DOT": -0.01936341, "MEAN_MOTION_DDOT": 0}, "tle": {"line1": "1 66870U 25281Y   25356.16668980 -.01936341  00000+0 -19538-1 0  9995", "line2": "2 66870  43.0005  64.7199 0001219 263.9989 321.1422 15.67570085  2805"}}, "geometry": {"type": "Point", "coordinates": [-99.92058304960477, -15.444545880124574]}}, {"type": "Feature", "properties": {"norad_id": 66871, "name": "STARLINK-36095", "group": "last-30-days", "lat": -16.686644221183624, "lon": -98.40709352529572, "alt_km": 370.95035213278516, "timestamp": "2025-12-22T11:33:19.156030+00:00", "meta": {"OBJECT_NAME": "STARLINK-36095", "OBJECT_ID": "2025-281Z", "EPOCH": "2025-12-22T04:00:01.998720", "MEAN_MOTION": 15.67569109, "ECCENTRICITY": 0.0001134, "INCLINATION": 43.0001, "RA_OF_ASC_NODE": 64.7152, "ARG_OF_PERICENTER": 263.5404, "MEAN_ANOMALY": 323.5167, "EPHEMERIS_TYPE": 0, "CLASSIFICATION_TYPE": "U", "NORAD_CAT_ID": 66871, "ELEMENT_SET_NO": 999, "REV_AT_EPOCH": 294, "BSTAR": -0.019516, "MEAN_MOTION_DOT": -0.01934311, "MEAN_MOTION_DDOT": 0}, "tle": {"line1": "1 66871U 25281Z   25356.16668980 -.01934311  00000+0 -19516-1 0  9997", "line2": "2 66871  43.0001  64.7152 0001134 263.5404 323.5167 15.67569109  2947"}}, "geometry": {"type": "Point", "coordinates": [-98.40709352529572, -16.686644221183624]}}, {"type": "Feature", "properties": {"norad_id": 66872, "name": "STARLINK-36082", "group": "last-30-days", "lat": -17.920763770934585, "lon": -96.87105425517157, "alt_km": 371.0283329921813, "timestamp": "2025-12-22T11:33:19.156042+00:00", "meta": {"OBJECT_NAME": "STARLINK-36082", "OBJECT_ID": "2025-281AA", "EPOCH": "2025-12-22T04:00:01.998720", "MEAN_MOTION": 15.67574568, "ECCENTRICITY": 0.0001104, "INCLINATION": 43.0006, "RA_OF_ASC_NODE": 64.7098, "ARG_OF_PERICENTER": 261.8197, "MEAN_ANOMALY": 327.1569, "EPHEMERIS_TYPE": 0, "CLASSIFICATION_TYPE": "U", "NORAD_CAT_ID": 66872, "ELEMENT_SET_NO": 999, "REV_AT_EPOCH": 280, "BSTAR": -0.019635, "MEAN_MOTION_DOT": -0.01945114, "MEAN_MOTION_DDOT": 0}, "tle": {"line1": "1 66872U 25281AA  25356.16668980 -.01945114  00000+0 -19635-1 0  9993", "line2": "2 66872  43.0006  64.7098 0001104 261.8197 327.1569 15.67574568  2805"}}, "geometry": {"type": "Point", "coordinates": [-96.87105425517157, -17.920763770934585]}}, {"type": "Feature", "properties": {"norad_id": 66873, "name": "STARLINK-36128", "group": "last-30-days", "lat": -21.53699378586304, "lon": -92.1353977254059, "alt_km": 371.2371473234298, "timestamp": "2025-12-22T11:33:19.156055+00:00", "meta": {"OBJECT_NAME": "STARLINK-36128", "OBJECT_ID": "2025-281AB", "EPOCH": "2025-12-22T04:00:01.998720", "MEAN_MOTION": 15.67583975, "ECCENTRICITY": 0.0001152, "INCLINATION": 43.0002, "RA_OF_ASC_NODE": 64.6947, "ARG_OF_PERICENTER": 261.1374, "MEAN_ANOMALY": 333.5877, "EPHEMERIS_TYPE": 0, "CLASSIFICATION_TYPE": "U", "NORAD_CAT_ID": 66873, "ELEMENT_SET_NO": 999, "REV_AT_EPOCH": 294, "BSTAR": -0.019775, "MEAN_MOTION_DOT": -0.0195806, "MEAN_MOTION_DDOT": 0}, "tle": {"line1": "1 66873U 25281AB  25356.16668980 -.01958060  00000+0 -19775-1 0  9993", "line2": "2 66873  43.0002  64.6947 0001152 261.1374 333.5877 15.67583975  2947"}}, "geometry": {"type": "Point", "coordinates": [-92.1353977254059, -21.53699378586304]}}, {"type": "Feature", "properties": {"norad_id": 66874, "name": "STARLINK-36129", "group": "last-30-days", "lat": -19.140877379681356, "lon": -95.31427427354518, "alt_km": 371.1023030045262, "timestamp": "2025-12-22T11:33:19.156065+00:00", "meta": {"OBJECT_NAME": "STARLINK-36129", "OBJECT_ID": "2025-281AC", "EPOCH": "2025-12-22T04:00:01.998720", "MEAN_MOTION": 15.67581045, "ECCENTRICITY": 0.0001155, "INCLINATION": 43.0001, "RA_OF_ASC_NODE": 64.7051, "ARG_OF_PERICENTER": 262.1607, "MEAN_ANOMALY": 328.7333, "EPHEMERIS_TYPE": 0, "CLASSIFICATION_TYPE": "U", "NORAD_CAT_ID": 66874, "ELEMENT_SET_NO": 999, "REV_AT_EPOCH": 294, "BSTAR": -0.019755, "MEAN_MOTION_DOT": -0.01956105, "MEAN_MOTION_DDOT": 0}, "tle": {"line1": "1 66874U 25281AC  25356.16668980 -.01956105  00000+0 -19755-1 0  9990", "line2": "2 66874  43.0001  64.7051 0001155 262.1607 328.7333 15.67581045  2946"}}, "geometry": {"type": "Point", "coordinates": [-95.31427427354518, -19.140877379681356]}}, {"type": "Feature", "properties": {"norad_id": 66875, "name": "STARLINK-36053", "group": "last-30-days", "lat": -22.710761488254317, "lon": -90.50952545486494, "alt_km": 371.3406809250646, "timestamp": "2025-12-22T11:33:19.156077+00:00", "meta": {"OBJECT_NAME": "STARLINK-36053", "OBJECT_ID": "2025-281AD", "EPOCH": "2025-12-22T04:00:01.998720", "MEAN_MOTION": 15.67574569, "ECCENTRICITY": 0.0001123, "INCLINATION": 43.0003, "RA_OF_ASC_NODE": 64.6892, "ARG_OF_PERICENTER": 262.458, "MEAN_ANOMALY": 334.1869, "EPHEMERIS_TYPE": 0, "CLASSIFICATION_TYPE": "U", "NORAD_CAT_ID": 66875, "ELEMENT_SET_NO": 999, "REV_AT_EPOCH": 294, "BSTAR": -0.019639, "MEAN_MOTION_DOT": -0.01945435, "MEAN_MOTION_DDOT": 0}, "tle": {"line1": "1 66875U 25281AD  25356.16668980 -.01945435  00000+0 -19639-1 0  9996", "line2": "2 66875  43.0003  64.6892 0001123 262.4580 334.1869 15.67574569  2947"}}, "geometry": {"type": "Point", "coordinates": [-90.50952545486494, -22.710761488254317]}}, {"type": "Feature", "properties": {"norad_id": 66876, "name": "STARLINK-35702", "group": "last-30-days", "lat": -20.343860798573065, "lon": -93.74002500144118, "alt_km": 371.2118048432094, "timestamp": "2025-12-22T11:33:19.156087+00:00", "meta": {"OBJECT_NAME": "STARLINK-35702", "OBJECT_ID": "2025-281AE", "EPOCH": "2025-12-22T04:00:01.998720", "MEAN_MOTION": 15.67577987, "ECCENTRICITY": 0.000114, "INCLINATION": 43.0001, "RA_OF_ASC_NODE": 64.7001, "ARG_OF_PERICENTER": 264.219, "MEAN_ANOMALY": 328.5886, "EPHEMERIS_TYPE": 0, "CLASSIFICATION_TYPE": "U", "NORAD_CAT_ID": 66876, "ELEMENT_SET_NO": 999, "REV_AT_EPOCH": 294, "BSTAR": -0.019672, "MEAN_MOTION_DOT": -0.01948589, "MEAN_MOTION_DDOT": 0}, "tle": {"line1": "1 66876U 25281AE  25356.16668980 -.01948589  00000+0 -19672-1 0  9997", "line2": "2 66876  43.0001  64.7001 0001140 264.2190 328.5886 15.67577987  2948"}}, "geometry": {"type": "Point", "coordinates": [-93.74002500144118, -20.343860798573065]}}, {"type": "Feature", "properties": {"norad_id": 66877, "name": "ZQ-3 R/B", "group": "last-30-days", "lat": 25.7304227358076, "lon": 38.105408268386334, "alt_km": 1062.318937158745, "timestamp": "2025-12-22T11:33:19.156099+00:00", "meta": {"OBJECT_NAME": "ZQ-3 R/B", "OBJECT_ID": "2025-282A", "EPOCH": "2025-12-22T01:39:57.093984", "MEAN_MOTION": 14.78361716, "ECCENTRICITY": 0.0701039, "INCLINATION": 56.9486, "RA_OF_ASC_NODE": 21.441, "ARG_OF_PERICENTER": 236.368, "MEAN_ANOMALY": 116.8569, "EPHEMERIS_TYPE": 0, "CLASSIFICATION_TYPE": "U", "NORAD_CAT_ID": 66877, "ELEMENT_SET_NO": 999, "REV_AT_EPOCH": 276, "BSTAR": 0.00018865, "MEAN_MOTION_DOT": 0.01071886, "MEAN_MOTION_DDOT": 7.8083e-06}, "tle": {"line1": "1 66877U 25282A   25356.06941081  .01071886  78083-5  18865-3 0  9996", "line2": "2 66877  56.9486  21.4410 0701039 236.3680 116.8569 14.78361716  2769"}}, "geometry": {"type": "Point", "coordinates": [38.105408268386334, 25.7304227358076]}}, {"type": "Feature", "properties": {"norad_id": 66878, "name": "STARLINK-35866", "group": "last-30-days", "lat": -52.588671338513834, "lon": -53.53165021680412, "alt_km": 354.24932334858113, "timestamp": "2025-12-22T11:33:19.156110+00:00", "meta": {"OBJECT_NAME": "STARLINK-35866", "OBJECT_ID": "2025-283A", "EPOCH": "2025-12-22T04:00:01.998720", "MEAN_MOTION": 15.74594526, "ECCENTRICITY": 0.0001027, "INCLINATION": 53.1579, "RA_OF_ASC_NODE": 26.6338, "ARG_OF_PERICENTER": 108.3443, "MEAN_ANOMALY": 183.7585, "EPHEMERIS_TYPE": 0, "CLASSIFICATION_TYPE": "U", "NORAD_CAT_ID": 66878, "ELEMENT_SET_NO": 999, "REV_AT_EPOCH": 394, "BSTAR": -0.011197, "MEAN_MOTION_DOT": -0.01471532, "MEAN_MOTION_DDOT": 0}, "tle": {"line1": "1 66878U 25283A   25356.16668980 -.01471532  00000+0 -11197-1 0  9994", "line2": "2 66878  53.1579  26.6338 0001027 108.3443 183.7585 15.74594526  3949"}}, "geometry": {"type": "Point", "coordinates": [-53.53165021680412, -52.588671338513834]}}, {"type": "Feature", "properties": {"norad_id": 66879, "name": "STARLINK-35749", "group": "last-30-days", "lat": -51.830979861579, "lon": -47.467254894123755, "alt_km": 353.9470621700357, "timestamp": "2025-12-22T11:33:19.156121+00:00", "meta": {"OBJECT_NAME": "STARLINK-35749", "OBJECT_ID": "2025-283B", "EPOCH": "2025-12-22T04:00:01.998720", "MEAN_MOTION": 15.74562836, "ECCENTRICITY": 7.27e-05, "INCLINATION": 53.1578, "RA_OF_ASC_NODE": 26.6255, "ARG_OF_PERICENTER": 73.168, "MEAN_ANOMALY": 222.7563, "EPHEMERIS_TYPE": 0, "CLASSIFICATION_TYPE": "U", "NORAD_CAT_ID": 66879, "ELEMENT_SET_NO": 999, "REV_AT_EPOCH": 394, "BSTAR": -0.010747, "MEAN_MOTION_DOT": -0.01417204, "MEAN_MOTION_DDOT": 0}, "tle": {"line1": "1 66879U 25283B   25356.16668980 -.01417204  00000+0 -10747-1 0  9991", "line2": "2 66879  53.1578  26.6255 0000727  73.1680 222.7563 15.74562836  3944"}}, "geometry": {"type": "Point", "coordinates": [-47.467254894123755, -51.830979861579]}}]}